BEIDOU-2 G3             
1 36590U 10024A   26184.59643264 -.00000126  00000+0  00000+0 0  9998
2 36590   4.5525  61.4452 0007876 358.0504 156.5029  1.00270780 58939
BADR-5                  
1 36592U 10025A   26183.85730949  .00000164  00000+0  00000+0 0  9997
2 36592   0.0534 116.6609 0004417  72.1883  71.1356  1.00270190 53374
COMS 1                  
1 36744U 10032A   26183.84193179 -.00000092  00000+0  00000+0 0  9992
2 36744   4.8428  75.1721 0011766  13.9478 145.9526  0.99169046 51246
ARABSAT-5A              
1 36745U 10032B   26183.85730882  .00000164  00000+0  00000+0 0  9991
2 36745   0.0837  58.7234 0005770  58.1906 143.1198  1.00274808 58800
ECHOSTAR 15             
1 36792U 10034A   26183.63037325  .00000010  00000+0  00000+0 0  9993
2 36792   0.0361 284.5969 0002621 149.6466 314.5691  1.00270012 58475
BEIDOU-2 IGSO-1         
1 36828U 10036A   26184.60960520 -.00000082  00000+0  00000+0 0  9995
2 36828  54.3059 162.8113 0058973 225.1156 220.5802  1.00267546 58262
NILESAT 201             
1 36830U 10037A   26183.72379264  .00000000  00000+0  00000+0 0  9999
2 36830   0.0029 301.9161 0005503 187.4736  44.9449  1.00270006 58534
RASCOM-QAF 1R           
1 36831U 10037B   26183.87520402  .00000029  00000+0  00000+0 0  9999
2 36831   0.0091 102.9875 0006560 350.4459 145.4343  1.00271408 58462
AEHF-1 (USA 214)        
1 36868U 10039A   26183.85640192  .00000154  00000+0  00000+0 0  9997
2 36868   8.2570  67.8404 0004101  30.7408 160.5664  1.00269414 53814
XM-5                    
1 37185U 10053A   26183.85406361 -.00000012  00000+0  00000+0 0  9998
2 37185   0.0667 268.1133 0002415 288.6084 276.4302  1.00271810 57643
BSAT-3B                 
1 37207U 10056B   26183.88258098 -.00000340  00000+0  00000+0 0  9995
2 37207   0.0607 233.0378 0002272 299.7142 175.7278  1.00275488 52253
BEIDOU-2 G4             
1 37210U 10057A   26184.46969270 -.00000103  00000+0  00000+0 0  9993
2 37210   3.6851  68.8517 0004895 188.3256 353.3819  1.00271407 57457
SKYTERRA 1              
1 37218U 10061A   26183.70480317 -.00000110  00000+0  00000+0 0  9990
2 37218   5.1562  50.8263 0002333  37.9000 344.4335  1.00270534 57354
HYLAS 1                 
1 37237U 10065A   26181.30407082  .00000096  00000+0  00000+0 0  9999
2 37237   5.6751  72.8623 0001043 340.0885 348.6881  1.00272596  7010
INTELSAT 17 (IS-17)     
1 37238U 10065B   26183.82521078  .00000000  00000+0  00000+0 0  9996
2 37238   0.0318  86.0350 0002651  36.0978 161.7791  1.00271717 53406
BEIDOU-2 IGSO-2         
1 37256U 10068A   26183.67533637 -.00000187  00000+0  00000+0 0  9993
2 37256  47.5191 271.6399 0056589 213.9221 146.5191  1.00278505 56952
EUTELSAT KA-SAT 9A      
1 37258U 10069A   26183.58434090  .00000072  00000+0  00000+0 0  9991
2 37258   0.0605  12.7072 0003862 123.3444   3.9181  1.00271458 44162
HISPASAT 30W-5          
1 37264U 10070A   26183.79048958 -.00000205  00000+0  00000+0 0  9996
2 37264   0.0401 107.2840 0005827   7.2044  60.9170  1.00271470 53340
KOREASAT 6              
1 37265U 10070B   26183.86453728 -.00000101  00000+0  00000+0 0  9995
2 37265   0.0152  63.9928 0002672  49.2613 278.7633  1.00272131 56927
BEIDOU-2 IGSO-3         
1 37384U 11013A   26184.53055708 -.00000161  00000+0  00000+0 0  9992
2 37384  62.4298  39.9979 0035243 183.8660 355.7772  1.00264340 55829
INTELSAT 28 (IS-28)     
1 37392U 11016A   26183.79014292 -.00000215  00000+0  00000+0 0  9994
2 37392   1.8442  82.4423 0003925  22.1437  68.9475  1.00272094 53446
YAHSAT 1A               
1 37393U 11016B   26183.76845293  .00000000  00000+0  00000+0 0  9996
2 37393   0.0185  40.6280 0003400  71.1376 138.1848  1.00269059 42565
SBIRS GEO-1 (USA 230)   
1 37481U 11019A   26183.76835266  .00000108  00000+0  00000+0 0  9995
2 37481   4.5699  53.1143 0001914  40.7949 155.2944  1.00272295 55551
TELSTAR 14R             
1 37602U 11021A   26183.78398956 -.00000269  00000+0  00000+0 0  9994
2 37602   0.0554  82.5178 0002202 354.7967  62.7514  1.00271971 55993
GSAT-8                  
1 37605U 11022A   26183.73611103  .00000094  00000+0  00000+0 0  9990
2 37605   2.1688  81.6457 0001951 172.9445 346.2785  1.00272277 53378
ST-2                    
1 37606U 11022B   26183.87658984 -.00000201  00000+0  00000+0 0  9995
2 37606   0.0170  48.6212 0001744  63.7075 212.1796  1.00271873 55433
ZHONGXING-10            
1 37677U 11026A   26184.59755932 -.00000178  00000+0  00000+0 0  9991
2 37677   1.0874  84.0273 0003798  12.0586 126.1913  1.00271713 55167
SES-3                   
1 37748U 11035A   26183.70471650 -.00000092  00000+0  00000+0 0  9999
2 37748   1.3646  82.9319 0002384  10.4088 338.1040  1.00272268 54748
KAZSAT-2                
1 37749U 11035B   26183.87531448 -.00000187  00000+0  00000+0 0  9995
2 37749   0.0160 119.0733 0001822  37.1147 166.3416  1.00272906 53551
BEIDOU-2 IGSO-4         
1 37763U 11038A   26181.94400016  .00000017  00000+0  00000+0 0  9997
2 37763  54.6040 165.5504 0159650 231.3791 315.8344  1.00282911 54781
ASTRA 1N                
1 37775U 11041A   26183.58642093  .00000130  00000+0  00000+0 0  9995
2 37775   0.0898  44.2622 0005880  55.7608  50.8904  1.00272787 44680
BSAT-3C (JCSAT-110R)    
1 37776U 11041B   26183.88759588 -.00000340  00000+0  00000+0 0  9991
2 37776   0.0281 314.2527 0000733 191.6720 204.4767  1.00272418 50624
